ATLAS CENTAUR R/B       
1 06155U 72065B   26003.28460509  .00002579  00000+0  35560-3 0  9996
2 06155  35.0031 328.9896 0033930 181.3067 178.7548 14.77480324831585
SL-8 R/B                
1 08459U 75112B   26003.11645056  .00000556  00000+0  19148-3 0  9992
2 08459  74.0608 139.5385 0016749 248.9593 110.9770 14.38162773622449
SL-3 R/B                
1 10114U 77057B   26003.21872025  .00020166  00000+0  45013-3 0  9991
2 10114  97.5687 172.3934 0007888 151.1454 209.0231 15.43553891658226
SEASAT 1                
1 10967U 78064A   26002.85025167  .00000866  00000+0  28063-3 0  9993
2 10967 108.0141 347.3267 0001240 261.8366  98.2639 14.46090040496993
SL-14 R/B               
1 11267U 79011B   26002.91681365  .00001280  00000+0  12423-3 0  9999
2 11267  82.5245 158.9595 0014690 278.2203  81.7350 14.91804315518971
SL-8 R/B                
1 11574U 79089B   26003.26921563  .00000416  00000+0  13391-3 0  9996
2 11574  74.0673 212.1323 0014980  37.9088 322.3120 14.42298552426678
SL-14 R/B               
1 11672U 80005B   26003.28940460  .00001207  00000+0  11986-3 0  9991
2 11672  82.5139   9.2587 0016465  26.9291 333.2779 14.90824640466748
SL-8 R/B                
1 12139U 81003B   26003.24543296  .00035304  00000+0  93188-3 0  9990
2 12139  82.9364 350.4134 0275408  46.5160 315.8610 15.07890125304805
SL-3 R/B                
1 12465U 81046B   26003.26857090  .00019018  00000+0  47056-3 0  9998
2 12465  81.2315   8.1719 0017983 244.4576 115.4807 15.40147292428359
SL-3 R/B                
1 12904U 81103B   26003.24709144  .00010193  00000+0  46350-3 0  9995
2 12904  81.1610 290.1617 0013574 140.2054 220.0176 15.20542536963286
SL-3 R/B                
1 13068U 82013B   26003.21884207  .00007121  00000+0  31474-3 0  9997
2 13068  81.1734 237.4656 0023704  41.9859 318.3184 15.21308083394396
SL-3 R/B                
1 13154U 82039B   26003.24777694  .00005544  00000+0  33939-3 0  9990
2 13154  81.1705 291.3498 0029610 179.3177 180.8094 15.09679741371760
