CCSDS_OMM_VERS = 2.0
CREATION_DATE  = 
ORIGINATOR     = 

OBJECT_NAME    = ATLAS CENTAUR R/B
OBJECT_ID      = 1972-065B
CENTER_NAME    = EARTH
REF_FRAME      = TEME
TIME_SYSTEM    = UTC
MEAN_ELEMENT_THEORY = SGP/SGP4

EPOCH          = 2026-01-03T06:49:49.879776
MEAN_MOTION    = 14.77480324
ECCENTRICITY   = .00339307
INCLINATION    = 35.0031
RA_OF_ASC_NODE = 328.9896
ARG_OF_PERICENTER = 181.3067
MEAN_ANOMALY   = 178.7548

EPHEMERIS_TYPE = 0
CLASSIFICATION_TYPE = U
NORAD_CAT_ID   = 6155
ELEMENT_SET_NO = 999
REV_AT_EPOCH   = 83158
BSTAR          = .3555968E-3
MEAN_MOTION_DOT = .2579E-4
MEAN_MOTION_DDOT = 0

CCSDS_OMM_VERS = 2.0
CREATION_DATE  = 
ORIGINATOR     = 

OBJECT_NAME    = SL-8 R/B
OBJECT_ID      = 1975-112B
CENTER_NAME    = EARTH
REF_FRAME      = TEME
TIME_SYSTEM    = UTC
MEAN_ELEMENT_THEORY = SGP/SGP4

EPOCH          = 2026-01-03T02:47:41.328384
MEAN_MOTION    = 14.38162773
ECCENTRICITY   = .00167496
INCLINATION    = 74.0608
RA_OF_ASC_NODE = 139.5385
ARG_OF_PERICENTER = 248.9593
MEAN_ANOMALY   = 110.9770

EPHEMERIS_TYPE = 0
CLASSIFICATION_TYPE = U
NORAD_CAT_ID   = 8459
ELEMENT_SET_NO = 999
REV_AT_EPOCH   = 62244
BSTAR          = .19147854E-3
MEAN_MOTION_DOT = .556E-5
MEAN_MOTION_DDOT = 0

CCSDS_OMM_VERS = 2.0
CREATION_DATE  = 
ORIGINATOR     = 

OBJECT_NAME    = SL-3 R/B
OBJECT_ID      = 1977-057B
CENTER_NAME    = EARTH
REF_FRAME      = TEME
TIME_SYSTEM    = UTC
MEAN_ELEMENT_THEORY = SGP/SGP4

EPOCH          = 2026-01-03T05:14:57.429600
MEAN_MOTION    = 15.43553891
ECCENTRICITY   = .00078888
INCLINATION    = 97.5687
RA_OF_ASC_NODE = 172.3934
ARG_OF_PERICENTER = 151.1454
MEAN_ANOMALY   = 209.0231

EPHEMERIS_TYPE = 0
CLASSIFICATION_TYPE = U
NORAD_CAT_ID   = 10114
ELEMENT_SET_NO = 999
REV_AT_EPOCH   = 65822
BSTAR          = .45012767E-3
MEAN_MOTION_DOT = .20166E-3
MEAN_MOTION_DDOT = 0

CCSDS_OMM_VERS = 2.0
CREATION_DATE  = 
ORIGINATOR     = 

OBJECT_NAME    = SEASAT 1
OBJECT_ID      = 1978-064A
CENTER_NAME    = EARTH
REF_FRAME      = TEME
TIME_SYSTEM    = UTC
MEAN_ELEMENT_THEORY = SGP/SGP4

EPOCH          = 2026-01-02T20:24:21.744288
MEAN_MOTION    = 14.46090040
ECCENTRICITY   = .00012404
INCLINATION    = 108.0141
RA_OF_ASC_NODE = 347.3267
ARG_OF_PERICENTER = 261.8366
MEAN_ANOMALY   = 98.2639

EPHEMERIS_TYPE = 0
CLASSIFICATION_TYPE = U
NORAD_CAT_ID   = 10967
ELEMENT_SET_NO = 999
REV_AT_EPOCH   = 49699
BSTAR          = .28062955E-3
MEAN_MOTION_DOT = .866E-5
MEAN_MOTION_DDOT = 0

CCSDS_OMM_VERS = 2.0
CREATION_DATE  = 
ORIGINATOR     = 

OBJECT_NAME    = SL-14 R/B
OBJECT_ID      = 1979-011B
CENTER_NAME    = EARTH
REF_FRAME      = TEME
TIME_SYSTEM    = UTC
MEAN_ELEMENT_THEORY = SGP/SGP4

EPOCH          = 2026-01-02T22:00:12.699360
MEAN_MOTION    = 14.91804315
ECCENTRICITY   = .001469
INCLINATION    = 82.5245
RA_OF_ASC_NODE = 158.9595
ARG_OF_PERICENTER = 278.2203
MEAN_ANOMALY   = 81.7350

EPHEMERIS_TYPE = 0
CLASSIFICATION_TYPE = U
NORAD_CAT_ID   = 11267
ELEMENT_SET_NO = 999
REV_AT_EPOCH   = 51897
BSTAR          = .12423E-3
MEAN_MOTION_DOT = .128E-4
MEAN_MOTION_DDOT = 0

CCSDS_OMM_VERS = 2.0
CREATION_DATE  = 
ORIGINATOR     = 

OBJECT_NAME    = SL-8 R/B
OBJECT_ID      = 1979-089B
CENTER_NAME    = EARTH
REF_FRAME      = TEME
TIME_SYSTEM    = UTC
MEAN_ELEMENT_THEORY = SGP/SGP4

EPOCH          = 2026-01-03T06:27:40.230432
MEAN_MOTION    = 14.42298552
ECCENTRICITY   = .00149808
INCLINATION    = 74.0673
RA_OF_ASC_NODE = 212.1323
ARG_OF_PERICENTER = 37.9088
MEAN_ANOMALY   = 322.3120

EPHEMERIS_TYPE = 0
CLASSIFICATION_TYPE = U
NORAD_CAT_ID   = 11574
ELEMENT_SET_NO = 999
REV_AT_EPOCH   = 42667
BSTAR          = .13391304E-3
MEAN_MOTION_DOT = .416E-5
MEAN_MOTION_DDOT = 0

CCSDS_OMM_VERS = 2.0
CREATION_DATE  = 
ORIGINATOR     = 

OBJECT_NAME    = SL-14 R/B
OBJECT_ID      = 1980-005B
CENTER_NAME    = EARTH
REF_FRAME      = TEME
TIME_SYSTEM    = UTC
MEAN_ELEMENT_THEORY = SGP/SGP4

EPOCH          = 2026-01-03T06:56:44.557440
MEAN_MOTION    = 14.90824640
ECCENTRICITY   = .00164657
INCLINATION    = 82.5139
RA_OF_ASC_NODE = 9.2587
ARG_OF_PERICENTER = 26.9291
MEAN_ANOMALY   = 333.2779

EPHEMERIS_TYPE = 0
CLASSIFICATION_TYPE = U
NORAD_CAT_ID   = 11672
ELEMENT_SET_NO = 999
REV_AT_EPOCH   = 46674
BSTAR          = .11986466E-3
MEAN_MOTION_DOT = .1207E-4
MEAN_MOTION_DDOT = 0

CCSDS_OMM_VERS = 2.0
CREATION_DATE  = 
ORIGINATOR     = 

OBJECT_NAME    = SL-8 R/B
OBJECT_ID      = 1981-003B
CENTER_NAME    = EARTH
REF_FRAME      = TEME
TIME_SYSTEM    = UTC
MEAN_ELEMENT_THEORY = SGP/SGP4

EPOCH          = 2026-01-03T05:53:25.407744
MEAN_MOTION    = 15.07890125
ECCENTRICITY   = .02754083
INCLINATION    = 82.9364
RA_OF_ASC_NODE = 350.4134
ARG_OF_PERICENTER = 46.5160
MEAN_ANOMALY   = 315.8610

EPHEMERIS_TYPE = 0
CLASSIFICATION_TYPE = U
NORAD_CAT_ID   = 12139
ELEMENT_SET_NO = 999
REV_AT_EPOCH   = 30480
BSTAR          = .93188241E-3
MEAN_MOTION_DOT = .35304E-3
MEAN_MOTION_DDOT = 0

CCSDS_OMM_VERS = 2.0
CREATION_DATE  = 
ORIGINATOR     = 

OBJECT_NAME    = SL-3 R/B
OBJECT_ID      = 1981-046B
CENTER_NAME    = EARTH
REF_FRAME      = TEME
TIME_SYSTEM    = UTC
MEAN_ELEMENT_THEORY = SGP/SGP4

EPOCH          = 2026-01-03T06:26:44.525760
MEAN_MOTION    = 15.40147292
ECCENTRICITY   = .00179835
INCLINATION    = 81.2315
RA_OF_ASC_NODE = 8.1719
ARG_OF_PERICENTER = 244.4576
MEAN_ANOMALY   = 115.4807

EPHEMERIS_TYPE = 0
CLASSIFICATION_TYPE = U
NORAD_CAT_ID   = 12465
ELEMENT_SET_NO = 999
REV_AT_EPOCH   = 42835
BSTAR          = .47055995E-3
MEAN_MOTION_DOT = .19018E-3
MEAN_MOTION_DDOT = 0

CCSDS_OMM_VERS = 2.0
CREATION_DATE  = 
ORIGINATOR     = 

OBJECT_NAME    = SL-3 R/B
OBJECT_ID      = 1981-103B
CENTER_NAME    = EARTH
REF_FRAME      = TEME
TIME_SYSTEM    = UTC
MEAN_ELEMENT_THEORY = SGP/SGP4

EPOCH          = 2026-01-03T05:55:48.700416
MEAN_MOTION    = 15.20542536
ECCENTRICITY   = .00135746
INCLINATION    = 81.1610
RA_OF_ASC_NODE = 290.1617
ARG_OF_PERICENTER = 140.2054
MEAN_ANOMALY   = 220.0176

EPHEMERIS_TYPE = 0
CLASSIFICATION_TYPE = U
NORAD_CAT_ID   = 12904
ELEMENT_SET_NO = 999
REV_AT_EPOCH   = 96328
BSTAR          = .46349962E-3
MEAN_MOTION_DOT = .10193E-3
MEAN_MOTION_DDOT = 0

CCSDS_OMM_VERS = 2.0
CREATION_DATE  = 
ORIGINATOR     = 

OBJECT_NAME    = SL-3 R/B
OBJECT_ID      = 1982-013B
CENTER_NAME    = EARTH
REF_FRAME      = TEME
TIME_SYSTEM    = UTC
MEAN_ELEMENT_THEORY = SGP/SGP4

EPOCH          = 2026-01-03T05:15:07.954848
MEAN_MOTION    = 15.21308083
ECCENTRICITY   = .0023704
INCLINATION    = 81.1734
RA_OF_ASC_NODE = 237.4656
ARG_OF_PERICENTER = 41.9859
MEAN_ANOMALY   = 318.3184

EPHEMERIS_TYPE = 0
CLASSIFICATION_TYPE = U
NORAD_CAT_ID   = 13068
ELEMENT_SET_NO = 999
REV_AT_EPOCH   = 39439
BSTAR          = .31474217E-3
MEAN_MOTION_DOT = .7121E-4
MEAN_MOTION_DDOT = 0

CCSDS_OMM_VERS = 2.0
CREATION_DATE  = 
ORIGINATOR     = 

OBJECT_NAME    = SL-3 R/B
OBJECT_ID      = 1982-039B
CENTER_NAME    = EARTH
REF_FRAME      = TEME
TIME_SYSTEM    = UTC
MEAN_ELEMENT_THEORY = SGP/SGP4

EPOCH          = 2026-01-03T05:56:47.927616
MEAN_MOTION    = 15.09679741
ECCENTRICITY   = .002961
INCLINATION    = 81.1705
RA_OF_ASC_NODE = 291.3498
ARG_OF_PERICENTER = 179.3177
MEAN_ANOMALY   = 180.8094

EPHEMERIS_TYPE = 0
CLASSIFICATION_TYPE = U
NORAD_CAT_ID   = 13154
ELEMENT_SET_NO = 999
REV_AT_EPOCH   = 37176
BSTAR          = .33939448E-3
MEAN_MOTION_DOT = .5544E-4
MEAN_MOTION_DDOT = 0

